QIANFAN-17              
1 60395U 24140S   26009.65617899  .00000149  00000+0  21152-3 0  9999
2 60395  88.9791 296.5521 0016181 120.1259 240.1499 13.50984091 71900
QIANFAN-18              
1 60396U 24140T   26009.63559075  .00000155  00000+0  22126-3 0  9998
2 60396  88.9783 296.0858 0015863 104.2074 256.0840 13.50984133 71299
QIANFAN-19              
1 61552U 24185A   26009.67275731  .00000499  00000+0  25382-3 0  9998
2 61552  88.9799  74.7440 0006263 196.5363 163.5620 14.14328831 73612
QIANFAN-20              
1 61553U 24185B   26009.67125981  .00000508  00000+0  28606-3 0  9993
2 61553  88.9798  75.0963 0004164 244.7957 115.2795 14.08876873 73422
QIANFAN-21              
1 61554U 24185C   26009.67443168  .00000610  00000+0  26645-3 0  9999
2 61554  88.9713  73.7108 0008365 270.7390  89.2843 14.22651564 73948
QIANFAN-22              
1 61555U 24185D   26009.65061831  .00000200  00000+0  16136-3 0  9990
2 61555  88.9782  76.1919 0004383 266.9692  93.0978 13.86315157 72800
QIANFAN-23              
1 61556U 24185E   26009.67947146  .00000457  00000+0  22325-3 0  9996
2 61556  88.9790  74.5397 0006531 210.7720 149.3086 14.16323792 73701
QIANFAN-24              
1 61557U 24185F   26009.65357660  .00000701  00000+0  30021-3 0  9995
2 61557  88.9772  73.9019 0008978 193.2520 166.8438 14.23853123 73996
